[{"COMMENT":"GENERATED VIA SPACETRACK.ORG API","ORIGINATOR":"18 SPCS","NORAD_CAT_ID":"43476","OBJECT_NAME":"GRACE-FO 1","OBJECT_TYPE":"PAYLOAD","CLASSIFICATION_TYPE":"U","INTLDES":"18047A","EPOCH":"2023-10-22 21:48:01","EPOCH_MICROSECONDS":"396800","MEAN_MOTION":"15.2713446","ECCENTRICITY":"0.0010646","INCLINATION":"88.9851","RA_OF_ASC_NODE":"331.8187","ARG_OF_PERICENTER":"264.8934","MEAN_ANOMALY":"95.11","EPHEMERIS_TYPE":"0","ELEMENT_SET_NO":"999","REV_AT_EPOCH":"30148","BSTAR":"0.00016068","MEAN_MOTION_DOT":"0.00004307","MEAN_MOTION_DDOT":"0","FILE":"4048538","TLE_LINE0":"0 GRACE-FO 1","TLE_LINE1":"1 43476U 18047A   23295.90834950  .00004307  00000-0  16068-3 0  9991","TLE_LINE2":"2 43476  88.9851 331.8187 0010646 264.8934  95.1100 15.27134460301484","OBJECT_ID":"2018-047A","OBJECT_NUMBER":"43476","SEMIMAJOR_AXIS":"6862.521","PERIOD":"94.294","APOGEE":"491.691","PERIGEE":"477.080","DECAYED":"0"},{"COMMENT":"GENERATED VIA SPACETRACK.ORG API","ORIGINATOR":"18 SPCS","NORAD_CAT_ID":"43476","OBJECT_NAME":"GRACE-FO 1","OBJECT_TYPE":"PAYLOAD","CLASSIFICATION_TYPE":"U","INTLDES":"18047A","EPOCH":"2023-10-23 21:23:25","EPOCH_MICROSECONDS":"495584","MEAN_MOTION":"15.27140699","ECCENTRICITY":"0.0010686","INCLINATION":"88.9849","RA_OF_ASC_NODE":"331.6846","ARG_OF_PERICENTER":"260.1344","MEAN_ANOMALY":"99.8699","EPHEMERIS_TYPE":"0","ELEMENT_SET_NO":"999","REV_AT_EPOCH":"30163","BSTAR":"0.0001379","MEAN_MOTION_DOT":"0.00003701","MEAN_MOTION_DDOT":"0","FILE":"4050204","TLE_LINE0":"0 GRACE-FO 1","TLE_LINE1":"1 43476U 18047A   23296.89126731  .00003701  00000-0  13790-3 0  9997","TLE_LINE2":"2 43476  88.9849 331.6846 0010686 260.1344  99.8699 15.27140699301631","OBJECT_ID":"2018-047A","OBJECT_NUMBER":"43476","SEMIMAJOR_AXIS":"6862.502","PERIOD":"94.294","APOGEE":"491.700","PERIGEE":"477.034","DECAYED":"0"},{"COMMENT":"GENERATED VIA SPACETRACK.ORG API","ORIGINATOR":"18 SPCS","NORAD_CAT_ID":"43476","OBJECT_NAME":"GRACE-FO 1","OBJECT_TYPE":"PAYLOAD","CLASSIFICATION_TYPE":"U","INTLDES":"18047A","EPOCH":"2023-10-24 03:40:51","EPOCH_MICROSECONDS":"855744","MEAN_MOTION":"15.2714262","ECCENTRICITY":"0.0010699","INCLINATION":"88.9848","RA_OF_ASC_NODE":"331.6488","ARG_OF_PERICENTER":"258.8271","MEAN_ANOMALY":"101.1775","EPHEMERIS_TYPE":"0","ELEMENT_SET_NO":"999","REV_AT_EPOCH":"30167","BSTAR":"0.00013527","MEAN_MOTION_DOT":"0.00003631","MEAN_MOTION_DDOT":"0","FILE":"4050227","TLE_LINE0":"0 GRACE-FO 1","TLE_LINE1":"1 43476U 18047A   23297.15337796  .00003631  00000-0  13527-3 0  9992","TLE_LINE2":"2 43476  88.9848 331.6488 0010699 258.8271 101.1775 15.27142620301671","OBJECT_ID":"2018-047A","OBJECT_NUMBER":"43476","SEMIMAJOR_AXIS":"6862.496","PERIOD":"94.294","APOGEE":"491.703","PERIGEE":"477.019","DECAYED":"0"},{"COMMENT":"GENERATED VIA SPACETRACK.ORG API","ORIGINATOR":"18 SPCS","NORAD_CAT_ID":"43476","OBJECT_NAME":"GRACE-FO 1","OBJECT_TYPE":"PAYLOAD","CLASSIFICATION_TYPE":"U","INTLDES":"18047A","EPOCH":"2023-10-24 13:07:01","EPOCH_MICROSECONDS":"389504","MEAN_MOTION":"15.27144171","ECCENTRICITY":"0.0010719","INCLINATION":"88.9848","RA_OF_ASC_NODE":"331.5952","ARG_OF_PERICENTER":"256.8287","MEAN_ANOMALY":"103.1767","EPHEMERIS_TYPE":"0","ELEMENT_SET_NO":"999","REV_AT_EPOCH":"30173","BSTAR":"0.00011986","MEAN_MOTION_DOT":"0.00003221","MEAN_MOTION_DDOT":"0","FILE":"4051588","TLE_LINE0":"0 GRACE-FO 1","TLE_LINE1":"1 43476U 18047A   23297.54654386  .00003221  00000-0  11986-3 0  9994","TLE_LINE2":"2 43476  88.9848 331.5952 0010719 256.8287 103.1767 15.27144171301737","OBJECT_ID":"2018-047A","OBJECT_NUMBER":"43476","SEMIMAJOR_AXIS":"6862.491","PERIOD":"94.294","APOGEE":"491.712","PERIGEE":"477.001","DECAYED":"0"},{"COMMENT":"GENERATED VIA SPACETRACK.ORG API","ORIGINATOR":"18 SPCS","NORAD_CAT_ID":"43476","OBJECT_NAME":"GRACE-FO 1","OBJECT_TYPE":"PAYLOAD","CLASSIFICATION_TYPE":"U","INTLDES":"18047A","EPOCH":"2023-10-24 14:41:22","EPOCH_MICROSECONDS":"971552","MEAN_MOTION":"15.27144593","ECCENTRICITY":"0.0010721","INCLINATION":"88.9848","RA_OF_ASC_NODE":"331.5862","ARG_OF_PERICENTER":"256.5234","MEAN_ANOMALY":"103.4821","EPHEMERIS_TYPE":"0","ELEMENT_SET_NO":"999","REV_AT_EPOCH":"30174","BSTAR":"0.00012","MEAN_MOTION_DOT":"0.00003225","MEAN_MOTION_DDOT":"0","FILE":"4051589","TLE_LINE0":"0 GRACE-FO 1","TLE_LINE1":"1 43476U 18047A   23297.61207143  .00003225  00000-0  12000-3 0  9999","TLE_LINE2":"2 43476  88.9848 331.5862 0010721 256.5234 103.4821 15.27144593301742","OBJECT_ID":"2018-047A","OBJECT_NUMBER":"43476","SEMIMAJOR_AXIS":"6862.490","PERIOD":"94.294","APOGEE":"491.712","PERIGEE":"476.998","DECAYED":"0"},{"COMMENT":"GENERATED VIA SPACETRACK.ORG API","ORIGINATOR":"18 SPCS","NORAD_CAT_ID":"43476","OBJECT_NAME":"GRACE-FO 1","OBJECT_TYPE":"PAYLOAD","CLASSIFICATION_TYPE":"U","INTLDES":"18047A","EPOCH":"2023-10-25 14:16:46","EPOCH_MICROSECONDS":"513920","MEAN_MOTION":"15.27150549","ECCENTRICITY":"0.0010765","INCLINATION":"88.9846","RA_OF_ASC_NODE":"331.452","ARG_OF_PERICENTER":"251.7246","MEAN_ANOMALY":"108.2833","EPHEMERIS_TYPE":"0","ELEMENT_SET_NO":"999","REV_AT_EPOCH":"30189","BSTAR":"0.00011207","MEAN_MOTION_DOT":"0.00003015","MEAN_MOTION_DDOT":"0","FILE":"4051838","TLE_LINE0":"0 GRACE-FO 1","TLE_LINE1":"1 43476U 18047A   23298.59498280  .00003015  00000-0  11207-3 0  9996","TLE_LINE2":"2 43476  88.9846 331.4520 0010765 251.7246 108.2833 15.27150549301898","OBJECT_ID":"2018-047A","OBJECT_NUMBER":"43476","SEMIMAJOR_AXIS":"6862.472","PERIOD":"94.293","APOGEE":"491.725","PERIGEE":"476.950","DECAYED":"0"},{"COMMENT":"GENERATED VIA SPACETRACK.ORG API","ORIGINATOR":"18 SPCS","NORAD_CAT_ID":"43476","OBJECT_NAME":"GRACE-FO 1","OBJECT_TYPE":"PAYLOAD","CLASSIFICATION_TYPE":"U","INTLDES":"18047A","EPOCH":"2023-10-25 14:16:46","EPOCH_MICROSECONDS":"513920","MEAN_MOTION":"15.27150549","ECCENTRICITY":"0.0010765","INCLINATION":"88.9846","RA_OF_ASC_NODE":"331.452","ARG_OF_PERICENTER":"251.7246","MEAN_ANOMALY":"108.2833","EPHEMERIS_TYPE":"0","ELEMENT_SET_NO":"999","REV_AT_EPOCH":"30189","BSTAR":"0.00011207","MEAN_MOTION_DOT":"0.00003015","MEAN_MOTION_DDOT":"0","FILE":"4052988","TLE_LINE0":"0 GRACE-FO 1","TLE_LINE1":"1 43476U 18047A   23298.59498280  .00003015  00000-0  11207-3 0  9996","TLE_LINE2":"2 43476  88.9846 331.4520 0010765 251.7246 108.2833 15.27150549301898","OBJECT_ID":"2018-047A","OBJECT_NUMBER":"43476","SEMIMAJOR_AXIS":"6862.472","PERIOD":"94.293","APOGEE":"491.725","PERIGEE":"476.950","DECAYED":"0"},{"COMMENT":"GENERATED VIA SPACETRACK.ORG API","ORIGINATOR":"18 SPCS","NORAD_CAT_ID":"43476","OBJECT_NAME":"GRACE-FO 1","OBJECT_TYPE":"PAYLOAD","CLASSIFICATION_TYPE":"U","INTLDES":"18047A","EPOCH":"2023-10-26 13:52:09","EPOCH_MICROSECONDS":"704640","MEAN_MOTION":"15.27157897","ECCENTRICITY":"0.0010826","INCLINATION":"88.9843","RA_OF_ASC_NODE":"331.3179","ARG_OF_PERICENTER":"246.983","MEAN_ANOMALY":"113.0278","EPHEMERIS_TYPE":"0","ELEMENT_SET_NO":"999","REV_AT_EPOCH":"30204","BSTAR":"0.00012624","MEAN_MOTION_DOT":"0.00003393","MEAN_MOTION_DDOT":"0","FILE":"4054082","TLE_LINE0":"0 GRACE-FO 1","TLE_LINE1":"1 43476U 18047A   23299.57789010  .00003393  00000-0  12624-3 0  9992","TLE_LINE2":"2 43476  88.9843 331.3179 0010826 246.9830 113.0278 15.27157897302045","OBJECT_ID":"2018-047A","OBJECT_NUMBER":"43476","SEMIMAJOR_AXIS":"6862.450","PERIOD":"94.293","APOGEE":"491.745","PERIGEE":"476.886","DECAYED":"0"},{"COMMENT":"GENERATED VIA SPACETRACK.ORG API","ORIGINATOR":"18 SPCS","NORAD_CAT_ID":"43476","OBJECT_NAME":"GRACE-FO 1","OBJECT_TYPE":"PAYLOAD","CLASSIFICATION_TYPE":"U","INTLDES":"18047A","EPOCH":"2023-10-26 18:35:14","EPOCH_MICROSECONDS":"303040","MEAN_MOTION":"15.27159195","ECCENTRICITY":"0.001084","INCLINATION":"88.9842","RA_OF_ASC_NODE":"331.2911","ARG_OF_PERICENTER":"246.0206","MEAN_ANOMALY":"113.9908","EPHEMERIS_TYPE":"0","ELEMENT_SET_NO":"999","REV_AT_EPOCH":"30207","BSTAR":"0.00012755","MEAN_MOTION_DOT":"0.00003428","MEAN_MOTION_DDOT":"0","FILE":"4054168","TLE_LINE0":"0 GRACE-FO 1","TLE_LINE1":"1 43476U 18047A   23299.77447110  .00003428  00000-0  12755-3 0  9990","TLE_LINE2":"2 43476  88.9842 331.2911 0010840 246.0206 113.9908 15.27159195302076","OBJECT_ID":"2018-047A","OBJECT_NUMBER":"43476","SEMIMAJOR_AXIS":"6862.446","PERIOD":"94.293","APOGEE":"491.750","PERIGEE":"476.873","DECAYED":"0"},{"COMMENT":"GENERATED VIA SPACETRACK.ORG API","ORIGINATOR":"18 SPCS","NORAD_CAT_ID":"43476","OBJECT_NAME":"GRACE-FO 1","OBJECT_TYPE":"PAYLOAD","CLASSIFICATION_TYPE":"U","INTLDES":"18047A","EPOCH":"2023-10-26 20:09:35","EPOCH_MICROSECONDS":"806464","MEAN_MOTION":"15.27160265","ECCENTRICITY":"0.0010847","INCLINATION":"88.9842","RA_OF_ASC_NODE":"331.2821","ARG_OF_PERICENTER":"245.7037","MEAN_ANOMALY":"114.308","EPHEMERIS_TYPE":"0","ELEMENT_SET_NO":"999","REV_AT_EPOCH":"30208","BSTAR":"0.00013285","MEAN_MOTION_DOT":"0.00003569","MEAN_MOTION_DDOT":"0","FILE":"4054421","TLE_LINE0":"0 GRACE-FO 1","TLE_LINE1":"1 43476U 18047A   23299.83999776  .00003569  00000-0  13285-3 0  9992","TLE_LINE2":"2 43476  88.9842 331.2821 0010847 245.7037 114.3080 15.27160265302088","OBJECT_ID":"2018-047A","OBJECT_NUMBER":"43476","SEMIMAJOR_AXIS":"6862.443","PERIOD":"94.293","APOGEE":"491.752","PERIGEE":"476.865","DECAYED":"0"}]